FENGYUN 3D              
1 43010U 17072A   26181.96040519 -.00000131  00000+0 -40235-4 0  9991
2 43010  99.0129 156.6319 0002189  39.9425 320.1911 14.19741763446940
NOAA 20 (JPSS-1)        
1 43013U 17073A   26181.88713985  .00000059  00000+0  49070-4 0  9993
2 43013  98.7773 121.2281 0000805 133.4926 226.6318 14.19514209446415
GOES 17                 
1 43226U 18022A   26181.64007787 -.00000173  00000+0  00000+0 0  9997
2 43226   0.9696  85.4969 0000743  33.8276 300.3108  1.00272282 30555
SENTINEL-3B             
1 43437U 18039A   26181.93516633  .00000118  00000+0  66871-4 0  9997
2 43437  98.6244 249.2699 0000820 114.5721 245.5545 14.26738573426084
FENGYUN 2H              
1 43491U 18050A   26181.81605778 -.00000121  00000+0  00000+0 0  9998
2 43491   3.0654  78.9207 0001755 121.3276  91.7215  1.00269660 29572
METOP-C                 
1 43689U 18087A   26181.93434861  .00000117  00000+0  73184-4 0  9995
2 43689  98.6639 241.2863 0002124 112.0746 248.0657 14.21515774396781
GEO-KOMPSAT-2A          
1 43823U 18100A   26181.68321897 -.00000333  00000+0  00000+0 0  9990
2 43823   0.0424 119.2731 0002364 332.3933 201.3042  1.00270789 27765
METEOR-M2 2             
1 44387U 19038A   26181.94265628  .00000068  00000+0  49449-4 0  9994
2 44387  98.9144 169.4311 0001474  27.7669 332.3588 14.24369551363252
ARKTIKA-M 1             
1 47719U 21016A   26180.95192977 -.00000281  00000+0  00000+0 0  9994
2 47719  63.2520  55.7907 7292817 269.9910  14.5481  2.00617895 39040
FENGYUN 3E              
1 49008U 21062A   26181.94274377 -.00000342  00000+0 -14035-3 0  9999
2 49008  98.7488 185.1970 0002721  63.9554 296.1903 14.19904003258536
GOES 18                 
1 51850U 22021A   26181.77324398  .00000107  00000+0  00000+0 0  9993
2 51850   0.0105  94.5169 0000538  39.6641 286.0207  1.00271074  6728
NOAA 21 (JPSS-2)        
1 54234U 22150A   26181.91966854  .00000054  00000+0  46392-4 0  9990
2 54234  98.7061 120.4782 0002383 130.0027 230.1359 14.19538913188491
METEOSAT-12 (MTG-I1)    
1 54743U 22170C   26181.91364176  .00000004  00000+0  00000+0 0  9992
2 54743   0.7531  25.0909 0003665  73.5457 148.9784  1.00276098 13117
TIANMU-1 03             
1 55973U 23039A   26181.95293190  .00016192  00000+0  31497-3 0  9997
2 55973  97.5230 356.4644 0003746  64.7704 295.3934 15.47668242182963
TIANMU-1 04             
1 55974U 23039B   26181.93703788  .00017443  00000+0  33195-3 0  9992
2 55974  97.5171 355.6023 0004128  58.7393 301.4261 15.48282991182979
TIANMU-1 05             
1 55975U 23039C   26181.93436648  .00016846  00000+0  32842-3 0  9995
2 55975  97.5215 356.0547 0003779  81.4105 278.7573 15.47595597182947
TIANMU-1 06             
1 55976U 23039D   26181.94128544  .00016095  00000+0  30757-3 0  9999
2 55976  97.5222 356.7116 0004004  76.5663 283.6034 15.48181318182974
FENGYUN 3G              
1 56232U 23055A   26181.81219414  .00024751  00000+0  39165-3 0  9996
2 56232  49.9927 275.7890 0007280 353.2650   6.8218 15.53220324182125
METEOR-M2 3             
1 57166U 23091A   26181.94013910  .00000019  00000+0  26839-4 0  9996
2 57166  98.6076 236.6367 0004956 122.2832 237.8827 14.24047929156472
TIANMU-1 07             
1 57399U 23101A   26181.90099035  .00006542  00000+0  22802-3 0  9996
2 57399  97.2584 232.2549 0004337  93.6262 266.5475 15.29964106163741
TIANMU-1 08             
1 57400U 23101B   26181.93299730  .00006940  00000+0  24166-3 0  9993
2 57400  97.2572 232.0548 0005534  82.2804 277.9065 15.29969972163741
TIANMU-1 09             
1 57401U 23101C   26181.91611633  .00006672  00000+0  23221-3 0  9995
2 57401  97.2530 231.4470 0004892  96.4084 263.7714 15.30004888163748
TIANMU-1 10             
1 57402U 23101D   26181.94941484  .00007527  00000+0  26175-3 0  9990
2 57402  97.2610 232.5441 0006407  91.0788 269.1188 15.29978975163744
FENGYUN 3F              
1 57490U 23111A   26181.92633513  .00000067  00000+0  52013-4 0  9990
2 57490  98.6832 251.6789 0001501  83.5750 276.5597 14.19941365150815
ARKTIKA-M 2             
1 58584U 23198A   26180.72239164  .00000148  00000+0  00000+0 0  9995
2 58584  63.2199 152.9641 6905877 267.3845  18.7575  2.00610643 18573
TIANMU-1 11             
1 58645U 23205A   26181.94532112  .00006010  00000+0  22845-3 0  9995
2 58645  97.3438 203.2868 0007369 325.6125  34.4637 15.27134746139620
TIANMU-1 12             
1 58646U 23205B   26181.98172627  .00006244  00000+0  23805-3 0  9997
2 58646  97.3426 203.0752 0005397 303.7230  56.3494 15.27033576139613
TIANMU-1 13             
1 58647U 23205C   26181.94949942  .00006316  00000+0  24133-3 0  9991
2 58647  97.3454 203.3186 0004942 278.5865  81.4814 15.26955133139602
TIANMU-1 14             
1 58648U 23205D   26181.99983315  .00006523  00000+0  24878-3 0  9995
2 58648  97.3390 202.5391 0005772 285.1641  74.8960 15.27000891139611
TIANMU-1 19             
1 58660U 23208A   26181.94100490  .00009437  00000+0  30999-3 0  9990
2 58660  97.4522 298.3129 0003536 260.5536  99.5306 15.31778747139436
