OBJECT_NAME,OBJECT_ID,EPOCH,MEAN_MOTION,ECCENTRICITY,INCLINATION,RA_OF_ASC_NODE,ARG_OF_PERICENTER,MEAN_ANOMALY,EPHEMERIS_TYPE,CLASSIFICATION_TYPE,NORAD_CAT_ID,ELEMENT_SET_NO,REV_AT_EPOCH,BSTAR,MEAN_MOTION_DOT,MEAN_MOTION_DDOT
FENGYUN 3D,2017-072A,2026-06-30T23:02:59.008416,14.19741763,.00021891,99.0129,156.6319,39.9425,320.1911,0,U,43010,999,44694,-.40234653E-4,-.131E-5,0
NOAA 20 (JPSS-1),2017-073A,2026-06-30T21:17:28.883040,14.19514209,.00008056,98.7773,121.2281,133.4926,226.6318,0,U,43013,999,44641,.49070281E-4,.59E-6,0
GOES 17,2018-022A,2026-06-30T15:21:42.727968,1.00272282,.00007439,0.9696,85.4969,33.8276,300.3108,0,U,43226,999,3055,0,-.173E-5,0
SENTINEL-3B,2018-039A,2026-06-30T22:26:38.370912,14.26738573,.00008205,98.6244,249.2699,114.5721,245.5545,0,U,43437,999,42608,.66871095E-4,.118E-5,0
FENGYUN 2H,2018-050A,2026-06-30T19:35:07.392192,1.00269660,.00017556,3.0654,78.9207,121.3276,91.7215,0,U,43491,999,2957,0,-.121E-5,0
METOP-C,2018-087A,2026-06-30T22:25:27.719904,14.21515774,.00021246,98.6639,241.2863,112.0746,248.0657,0,U,43689,999,39678,.73183524E-4,.117E-5,0
GEO-KOMPSAT-2A,2018-100A,2026-06-30T16:23:50.119008,1.00270789,.00023641,0.0424,119.2731,332.3933,201.3042,0,U,43823,999,2776,0,-.333E-5,0
METEOR-M2 2,2019-038A,2026-06-30T22:37:25.502592,14.24369551,.0001474,98.9144,169.4311,27.7669,332.3588,0,U,44387,999,36325,.49449034E-4,.68E-6,0
ARKTIKA-M 1,2021-016A,2026-06-29T22:50:46.732128,2.00617895,.72928178,63.2520,55.7907,269.9910,14.5481,0,U,47719,999,3904,0,-.281E-5,0
FENGYUN 3E,2021-062A,2026-06-30T22:37:33.061728,14.19904003,.00027211,98.7488,185.1970,63.9554,296.1903,0,U,49008,999,25853,-.14035042E-3,-.342E-5,0
GOES 18,2022-021A,2026-06-30T18:33:28.279872,1.00271074,.00005388,0.0105,94.5169,39.6641,286.0207,0,U,51850,999,672,0,.107E-5,0
NOAA 21 (JPSS-2),2022-150A,2026-06-30T22:04:19.361856,14.19538913,.00023834,98.7061,120.4782,130.0027,230.1359,0,U,54234,999,18849,.46392002E-4,.54E-6,0
METEOSAT-12 (MTG-I1),2022-170C,2026-06-30T21:55:38.648064,1.00276098,.00036656,0.7531,25.0909,73.5457,148.9784,0,U,54743,999,1311,0,.4E-7,0
TIANMU-1 03,2023-039A,2026-06-30T22:52:13.316160,15.47668242,.00037468,97.5230,356.4644,64.7704,295.3934,0,U,55973,999,18296,.31496892E-3,.16192E-3,0
TIANMU-1 04,2023-039B,2026-06-30T22:29:20.072832,15.48282991,.0004128,97.5171,355.6023,58.7393,301.4261,0,U,55974,999,18297,.33195012E-3,.17443E-3,0
TIANMU-1 05,2023-039C,2026-06-30T22:25:29.263872,15.47595597,.00037792,97.5215,356.0547,81.4105,278.7573,0,U,55975,999,18294,.32841533E-3,.16846E-3,0
TIANMU-1 06,2023-039D,2026-06-30T22:35:27.062016,15.48181318,.00040041,97.5222,356.7116,76.5663,283.6034,0,U,55976,999,18297,.30757448E-3,.16095E-3,0
FENGYUN 3G,2023-055A,2026-06-30T19:29:33.573696,15.53220324,.00072803,49.9927,275.7890,353.2650,6.8218,0,U,56232,999,18212,.3916513E-3,.24751E-3,0
METEOR-M2 3,2023-091A,2026-06-30T22:33:48.018240,14.24047929,.00049567,98.6076,236.6367,122.2832,237.8827,0,U,57166,999,15647,.2683897E-4,.19E-6,0
TIANMU-1 07,2023-101A,2026-06-30T21:37:25.566240,15.29964106,.00043374,97.2584,232.2549,93.6262,266.5475,0,U,57399,999,16374,.22802476E-3,.6542E-4,0
TIANMU-1 08,2023-101B,2026-06-30T22:23:30.966720,15.29969972,.00055344,97.2572,232.0548,82.2804,277.9065,0,U,57400,999,16374,.24165666E-3,.694E-4,0
TIANMU-1 09,2023-101C,2026-06-30T21:59:12.450912,15.30004888,.00048923,97.2530,231.4470,96.4084,263.7714,0,U,57401,999,16374,.2322054E-3,.6672E-4,0
TIANMU-1 10,2023-101D,2026-06-30T22:47:09.442176,15.29978975,.00064079,97.2610,232.5441,91.0788,269.1188,0,U,57402,999,16374,.26174944E-3,.7527E-4,0
FENGYUN 3F,2023-111A,2026-06-30T22:13:55.355232,14.19941365,.00015016,98.6832,251.6789,83.5750,276.5597,0,U,57490,999,15081,.52013119E-4,.67E-6,0
ARKTIKA-M 2,2023-198A,2026-06-29T17:20:14.637696,2.00610643,.69058771,63.2199,152.9641,267.3845,18.7575,0,U,58584,999,1857,0,.148E-5,0
TIANMU-1 11,2023-205A,2026-06-30T22:41:15.744768,15.27134746,.00073693,97.3438,203.2868,325.6125,34.4637,0,U,58645,999,13962,.22845288E-3,.601E-4,0
TIANMU-1 12,2023-205B,2026-06-30T23:33:41.149728,15.27033576,.00053976,97.3426,203.0752,303.7230,56.3494,0,U,58646,999,13961,.23804821E-3,.6244E-4,0
TIANMU-1 13,2023-205C,2026-06-30T22:47:16.749888,15.26955133,.00049426,97.3454,203.3186,278.5865,81.4814,0,U,58647,999,13960,.24132954E-3,.6316E-4,0
TIANMU-1 14,2023-205D,2026-06-30T23:59:45.584160,15.27000891,.00057723,97.3390,202.5391,285.1641,74.8960,0,U,58648,999,13961,.24878379E-3,.6523E-4,0
TIANMU-1 19,2023-208A,2026-06-30T22:35:02.823360,15.31778747,.00035368,97.4522,298.3129,260.5536,99.5306,0,U,58660,999,13943,.30999276E-3,.9437E-4,0
